EUTELSAT QUANTUM        
1 49056U 21069B   25325.81125240  .00000148  00000+0  00000+0 0  9993
2 49056   0.0354  51.6984 0002952 203.6373 145.4871  1.00271675 15840
EUTELSAT KONNECT VHTS   
1 53765U 22110A   25325.30287154  .00000040  00000+0  00000+0 0  9991
2 53765   0.0705 109.2870 0002921 101.0092 322.0440  1.00274218  4749
EUTELSAT HOTBIRD 13F    
1 54048U 22134A   25325.80431903  .00000109  00000+0  00000+0 0  9996
2 54048   0.0499 289.3532 0002024  75.4191 358.8534  1.00274042 11291
EUTELSAT HOTBIRD 13G    
1 54225U 22146A   25325.66168843  .00000109  00000+0  00000+0 0  9990
2 54225   0.0447 239.4311 0002078 294.4245 138.2865  1.00272239  5380
EUTELSAT 10B            
1 54259U 22157A   25325.80371235  .00000090  00000+0  00000+0 0  9995
2 54259   0.0699 105.3968 0000755   5.2949 249.7179  1.00269365 10944
EUTELSAT 36D            
1 59346U 24059A   25325.82406097  .00000178  00000+0  00000+0 0  9994
2 59346   0.0177 316.2190 0000926  42.2559  35.1351  1.00264787  6065
